; 10 mm calibration cube at the bed center (X80 Y80)
; PLA: hotend 200 C, bed 60 C, 0.2 mm layers, 0.45 mm lines, 1.75 mm filament
; Must be the ONLY .gcode file on the SD card. Do not add blank lines.
; Firmware rules: absolute E only (no G92), fan off with M106 S0.
G90
M106 S0
G28
M190 S60
M109 S200
; Prime line along the front of the bed
G0 Z5 F300
G0 X40 Y10 F3000
G0 Z0.3 F300
G1 X120 Y10 E5.9868 F900
G0 Z1 F300
; Layer 1/50 Z0.2 solid
G0 Z0.2 F300
G0 X75.645 Y75.645 F3000
G1 X84.355 Y75.645 E6.3127 F900
G1 X84.355 Y84.355 E6.6386 F900
G1 X75.645 Y84.355 E6.9645 F900
G1 X75.645 Y75.645 E7.2905 F900
G0 X75.225 Y75.225 F3000
G1 X84.775 Y75.225 E7.6478 F900
G1 X84.775 Y84.775 E8.0051 F900
G1 X75.225 Y84.775 E8.3625 F900
G1 X75.225 Y75.225 E8.7198 F900
G0 X75.995 Y76.095 F3000
G1 X84.005 Y76.095 E9.0195 F900
G1 X84.005 Y76.506 E9.0349 F900
G1 X75.995 Y76.506 E9.3346 F900
G1 X75.995 Y76.917 E9.3500 F900
G1 X84.005 Y76.917 E9.6497 F900
G1 X84.005 Y77.328 E9.6651 F900
G1 X75.995 Y77.328 E9.9648 F900
G1 X75.995 Y77.739 E9.9802 F900
G1 X84.005 Y77.739 E10.2799 F900
G1 X84.005 Y78.15 E10.2953 F900
G1 X75.995 Y78.15 E10.5950 F900
G1 X75.995 Y78.561 E10.6104 F900
G1 X84.005 Y78.561 E10.9101 F900
G1 X84.005 Y78.972 E10.9255 F900
G1 X75.995 Y78.972 E11.2252 F900
G1 X75.995 Y79.383 E11.2406 F900
G1 X84.005 Y79.383 E11.5403 F900
G1 X84.005 Y79.794 E11.5557 F900
G1 X75.995 Y79.794 E11.8554 F900
G1 X75.995 Y80.206 E11.8708 F900
G1 X84.005 Y80.206 E12.1705 F900
G1 X84.005 Y80.617 E12.1859 F900
G1 X75.995 Y80.617 E12.4856 F900
G1 X75.995 Y81.028 E12.5010 F900
G1 X84.005 Y81.028 E12.8007 F900
G1 X84.005 Y81.439 E12.8161 F900
G1 X75.995 Y81.439 E13.1158 F900
G1 X75.995 Y81.85 E13.1312 F900
G1 X84.005 Y81.85 E13.4309 F900
G1 X84.005 Y82.261 E13.4462 F900
G1 X75.995 Y82.261 E13.7460 F900
G1 X75.995 Y82.672 E13.7613 F900
G1 X84.005 Y82.672 E14.0611 F900
G1 X84.005 Y83.083 E14.0764 F900
G1 X75.995 Y83.083 E14.3762 F900
G1 X75.995 Y83.494 E14.3915 F900
G1 X84.005 Y83.494 E14.6913 F900
G1 X84.005 Y83.905 E14.7066 F900
G1 X75.995 Y83.905 E15.0063 F900
; Layer 2/50 Z0.4 solid
G0 Z0.4 F300
G0 X75.645 Y75.645 F3000
G1 X84.355 Y75.645 E15.3323 F1278
G1 X84.355 Y84.355 E15.6582 F1278
G1 X75.645 Y84.355 E15.9841 F1278
G1 X75.645 Y75.645 E16.3100 F1278
G0 X75.225 Y75.225 F3000
G1 X84.775 Y75.225 E16.6673 F1278
G1 X84.775 Y84.775 E17.0247 F1278
G1 X75.225 Y84.775 E17.3820 F1278
G1 X75.225 Y75.225 E17.7393 F1278
G0 X76.095 Y75.995 F3000
G1 X76.095 Y84.005 E18.0390 F1534
G1 X76.506 Y84.005 E18.0544 F1534
G1 X76.506 Y75.995 E18.3541 F1534
G1 X76.917 Y75.995 E18.3695 F1534
G1 X76.917 Y84.005 E18.6692 F1534
G1 X77.328 Y84.005 E18.6846 F1534
G1 X77.328 Y75.995 E18.9843 F1534
G1 X77.739 Y75.995 E18.9997 F1534
G1 X77.739 Y84.005 E19.2994 F1534
G1 X78.15 Y84.005 E19.3148 F1534
G1 X78.15 Y75.995 E19.6145 F1534
G1 X78.561 Y75.995 E19.6299 F1534
G1 X78.561 Y84.005 E19.9296 F1534
G1 X78.972 Y84.005 E19.9450 F1534
G1 X78.972 Y75.995 E20.2447 F1534
G1 X79.383 Y75.995 E20.2601 F1534
G1 X79.383 Y84.005 E20.5598 F1534
G1 X79.794 Y84.005 E20.5752 F1534
G1 X79.794 Y75.995 E20.8749 F1534
G1 X80.206 Y75.995 E20.8903 F1534
G1 X80.206 Y84.005 E21.1900 F1534
G1 X80.617 Y84.005 E21.2054 F1534
G1 X80.617 Y75.995 E21.5051 F1534
G1 X81.028 Y75.995 E21.5205 F1534
G1 X81.028 Y84.005 E21.8202 F1534
G1 X81.439 Y84.005 E21.8356 F1534
G1 X81.439 Y75.995 E22.1353 F1534
G1 X81.85 Y75.995 E22.1507 F1534
G1 X81.85 Y84.005 E22.4504 F1534
G1 X82.261 Y84.005 E22.4658 F1534
G1 X82.261 Y75.995 E22.7655 F1534
G1 X82.672 Y75.995 E22.7809 F1534
G1 X82.672 Y84.005 E23.0806 F1534
G1 X83.083 Y84.005 E23.0960 F1534
G1 X83.083 Y75.995 E23.3957 F1534
G1 X83.494 Y75.995 E23.4111 F1534
G1 X83.494 Y84.005 E23.7108 F1534
G1 X83.905 Y84.005 E23.7262 F1534
G1 X83.905 Y75.995 E24.0259 F1534
; Layer 3/50 Z0.6 solid
M106 S128
G0 Z0.6 F300
G0 X75.645 Y75.645 F3000
G1 X84.355 Y75.645 E24.3518 F1278
G1 X84.355 Y84.355 E24.6777 F1278
G1 X75.645 Y84.355 E25.0036 F1278
G1 X75.645 Y75.645 E25.3295 F1278
G0 X75.225 Y75.225 F3000
G1 X84.775 Y75.225 E25.6868 F1278
G1 X84.775 Y84.775 E26.0442 F1278
G1 X75.225 Y84.775 E26.4015 F1278
G1 X75.225 Y75.225 E26.7589 F1278
G0 X75.995 Y76.095 F3000
G1 X84.005 Y76.095 E27.0586 F1534
G1 X84.005 Y76.506 E27.0740 F1534
G1 X75.995 Y76.506 E27.3737 F1534
G1 X75.995 Y76.917 E27.3891 F1534
G1 X84.005 Y76.917 E27.6888 F1534
G1 X84.005 Y77.328 E27.7041 F1534
G1 X75.995 Y77.328 E28.0039 F1534
G1 X75.995 Y77.739 E28.0192 F1534
G1 X84.005 Y77.739 E28.3190 F1534
G1 X84.005 Y78.15 E28.3343 F1534
G1 X75.995 Y78.15 E28.6341 F1534
G1 X75.995 Y78.561 E28.6494 F1534
G1 X84.005 Y78.561 E28.9492 F1534
G1 X84.005 Y78.972 E28.9645 F1534
G1 X75.995 Y78.972 E29.2642 F1534
G1 X75.995 Y79.383 E29.2796 F1534
G1 X84.005 Y79.383 E29.5793 F1534
G1 X84.005 Y79.794 E29.5947 F1534
G1 X75.995 Y79.794 E29.8944 F1534
G1 X75.995 Y80.206 E29.9098 F1534
G1 X84.005 Y80.206 E30.2095 F1534
G1 X84.005 Y80.617 E30.2249 F1534
G1 X75.995 Y80.617 E30.5246 F1534
G1 X75.995 Y81.028 E30.5400 F1534
G1 X84.005 Y81.028 E30.8397 F1534
G1 X84.005 Y81.439 E30.8551 F1534
G1 X75.995 Y81.439 E31.1548 F1534
G1 X75.995 Y81.85 E31.1702 F1534
G1 X84.005 Y81.85 E31.4699 F1534
G1 X84.005 Y82.261 E31.4853 F1534
G1 X75.995 Y82.261 E31.7850 F1534
G1 X75.995 Y82.672 E31.8004 F1534
G1 X84.005 Y82.672 E32.1001 F1534
G1 X84.005 Y83.083 E32.1155 F1534
G1 X75.995 Y83.083 E32.4152 F1534
G1 X75.995 Y83.494 E32.4306 F1534
G1 X84.005 Y83.494 E32.7303 F1534
G1 X84.005 Y83.905 E32.7457 F1534
G1 X75.995 Y83.905 E33.0454 F1534
; Layer 4/50 Z0.8
G0 Z0.8 F300
G0 X75.645 Y75.645 F3000
G1 X84.355 Y75.645 E33.3713 F758
G1 X84.355 Y84.355 E33.6972 F758
G1 X75.645 Y84.355 E34.0231 F758
G1 X75.645 Y75.645 E34.3490 F758
G0 X75.225 Y75.225 F3000
G1 X84.775 Y75.225 E34.7064 F758
G1 X84.775 Y84.775 E35.0637 F758
G1 X75.225 Y84.775 E35.4210 F758
G1 X75.225 Y75.225 E35.7784 F758
G0 X76.095 Y75.995 F3000
G1 X76.095 Y84.005 E36.0781 F909
G1 X77.397 Y84.005 E36.1268 F909
G1 X77.397 Y75.995 E36.4265 F909
G1 X78.698 Y75.995 E36.4752 F909
G1 X78.698 Y84.005 E36.7749 F909
G1 X80 Y84.005 E36.8236 F909
G1 X80 Y75.995 E37.1234 F909
G1 X81.302 Y75.995 E37.1721 F909
G1 X81.302 Y84.005 E37.4718 F909
G1 X82.603 Y84.005 E37.5205 F909
G1 X82.603 Y75.995 E37.8202 F909
G1 X83.905 Y75.995 E37.8689 F909
G1 X83.905 Y84.005 E38.1686 F909
; Layer 5/50 Z1
G0 Z1 F300
G0 X75.645 Y75.645 F3000
G1 X84.355 Y75.645 E38.4945 F758
G1 X84.355 Y84.355 E38.8204 F758
G1 X75.645 Y84.355 E39.1463 F758
G1 X75.645 Y75.645 E39.4723 F758
G0 X75.225 Y75.225 F3000
G1 X84.775 Y75.225 E39.8296 F758
G1 X84.775 Y84.775 E40.1869 F758
G1 X75.225 Y84.775 E40.5443 F758
G1 X75.225 Y75.225 E40.9016 F758
G0 X75.995 Y76.095 F3000
G1 X84.005 Y76.095 E41.2013 F909
G1 X84.005 Y77.397 E41.2500 F909
G1 X75.995 Y77.397 E41.5497 F909
G1 X75.995 Y78.698 E41.5985 F909
G1 X84.005 Y78.698 E41.8982 F909
G1 X84.005 Y80 E41.9469 F909
G1 X75.995 Y80 E42.2466 F909
G1 X75.995 Y81.302 E42.2953 F909
G1 X84.005 Y81.302 E42.5950 F909
G1 X84.005 Y82.603 E42.6437 F909
G1 X75.995 Y82.603 E42.9434 F909
G1 X75.995 Y83.905 E42.9921 F909
G1 X84.005 Y83.905 E43.2918 F909
; Layer 6/50 Z1.2
G0 Z1.2 F300
G0 X75.645 Y75.645 F3000
G1 X84.355 Y75.645 E43.6178 F758
G1 X84.355 Y84.355 E43.9437 F758
G1 X75.645 Y84.355 E44.2696 F758
G1 X75.645 Y75.645 E44.5955 F758
G0 X75.225 Y75.225 F3000
G1 X84.775 Y75.225 E44.9528 F758
G1 X84.775 Y84.775 E45.3102 F758
G1 X75.225 Y84.775 E45.6675 F758
G1 X75.225 Y75.225 E46.0248 F758
G0 X76.095 Y75.995 F3000
G1 X76.095 Y84.005 E46.3245 F909
G1 X77.397 Y84.005 E46.3733 F909
G1 X77.397 Y75.995 E46.6730 F909
G1 X78.698 Y75.995 E46.7217 F909
G1 X78.698 Y84.005 E47.0214 F909
G1 X80 Y84.005 E47.0701 F909
G1 X80 Y75.995 E47.3698 F909
G1 X81.302 Y75.995 E47.4185 F909
G1 X81.302 Y84.005 E47.7182 F909
G1 X82.603 Y84.005 E47.7669 F909
G1 X82.603 Y75.995 E48.0667 F909
G1 X83.905 Y75.995 E48.1154 F909
G1 X83.905 Y84.005 E48.4151 F909
; Layer 7/50 Z1.4
G0 Z1.4 F300
G0 X75.645 Y75.645 F3000
G1 X84.355 Y75.645 E48.7410 F758
G1 X84.355 Y84.355 E49.0669 F758
G1 X75.645 Y84.355 E49.3928 F758
G1 X75.645 Y75.645 E49.7187 F758
G0 X75.225 Y75.225 F3000
G1 X84.775 Y75.225 E50.0760 F758
G1 X84.775 Y84.775 E50.4334 F758
G1 X75.225 Y84.775 E50.7907 F758
G1 X75.225 Y75.225 E51.1481 F758
G0 X75.995 Y76.095 F3000
G1 X84.005 Y76.095 E51.4478 F909
G1 X84.005 Y77.397 E51.4965 F909
G1 X75.995 Y77.397 E51.7962 F909
G1 X75.995 Y78.698 E51.8449 F909
G1 X84.005 Y78.698 E52.1446 F909
G1 X84.005 Y80 E52.1933 F909
G1 X75.995 Y80 E52.4930 F909
G1 X75.995 Y81.302 E52.5417 F909
G1 X84.005 Y81.302 E52.8415 F909
G1 X84.005 Y82.603 E52.8902 F909
G1 X75.995 Y82.603 E53.1899 F909
G1 X75.995 Y83.905 E53.2386 F909
G1 X84.005 Y83.905 E53.5383 F909
; Layer 8/50 Z1.6
G0 Z1.6 F300
G0 X75.645 Y75.645 F3000
G1 X84.355 Y75.645 E53.8642 F758
G1 X84.355 Y84.355 E54.1901 F758
G1 X75.645 Y84.355 E54.5160 F758
G1 X75.645 Y75.645 E54.8419 F758
G0 X75.225 Y75.225 F3000
G1 X84.775 Y75.225 E55.1993 F758
G1 X84.775 Y84.775 E55.5566 F758
G1 X75.225 Y84.775 E55.9139 F758
G1 X75.225 Y75.225 E56.2713 F758
G0 X76.095 Y75.995 F3000
G1 X76.095 Y84.005 E56.5710 F909
G1 X77.397 Y84.005 E56.6197 F909
G1 X77.397 Y75.995 E56.9194 F909
G1 X78.698 Y75.995 E56.9681 F909
G1 X78.698 Y84.005 E57.2678 F909
G1 X80 Y84.005 E57.3165 F909
G1 X80 Y75.995 E57.6163 F909
G1 X81.302 Y75.995 E57.6650 F909
G1 X81.302 Y84.005 E57.9647 F909
G1 X82.603 Y84.005 E58.0134 F909
G1 X82.603 Y75.995 E58.3131 F909
G1 X83.905 Y75.995 E58.3618 F909
G1 X83.905 Y84.005 E58.6615 F909
; Layer 9/50 Z1.8
G0 Z1.8 F300
G0 X75.645 Y75.645 F3000
G1 X84.355 Y75.645 E58.9874 F758
G1 X84.355 Y84.355 E59.3133 F758
G1 X75.645 Y84.355 E59.6392 F758
G1 X75.645 Y75.645 E59.9652 F758
G0 X75.225 Y75.225 F3000
G1 X84.775 Y75.225 E60.3225 F758
G1 X84.775 Y84.775 E60.6798 F758
G1 X75.225 Y84.775 E61.0372 F758
G1 X75.225 Y75.225 E61.3945 F758
G0 X75.995 Y76.095 F3000
G1 X84.005 Y76.095 E61.6942 F909
G1 X84.005 Y77.397 E61.7429 F909
G1 X75.995 Y77.397 E62.0426 F909
G1 X75.995 Y78.698 E62.0914 F909
G1 X84.005 Y78.698 E62.3911 F909
G1 X84.005 Y80 E62.4398 F909
G1 X75.995 Y80 E62.7395 F909
G1 X75.995 Y81.302 E62.7882 F909
G1 X84.005 Y81.302 E63.0879 F909
G1 X84.005 Y82.603 E63.1366 F909
G1 X75.995 Y82.603 E63.4363 F909
G1 X75.995 Y83.905 E63.4850 F909
G1 X84.005 Y83.905 E63.7847 F909
; Layer 10/50 Z2
G0 Z2 F300
G0 X75.645 Y75.645 F3000
G1 X84.355 Y75.645 E64.1107 F758
G1 X84.355 Y84.355 E64.4366 F758
G1 X75.645 Y84.355 E64.7625 F758
G1 X75.645 Y75.645 E65.0884 F758
G0 X75.225 Y75.225 F3000
G1 X84.775 Y75.225 E65.4457 F758
G1 X84.775 Y84.775 E65.8031 F758
G1 X75.225 Y84.775 E66.1604 F758
G1 X75.225 Y75.225 E66.5177 F758
G0 X76.095 Y75.995 F3000
G1 X76.095 Y84.005 E66.8174 F909
G1 X77.397 Y84.005 E66.8662 F909
G1 X77.397 Y75.995 E67.1659 F909
G1 X78.698 Y75.995 E67.2146 F909
G1 X78.698 Y84.005 E67.5143 F909
G1 X80 Y84.005 E67.5630 F909
G1 X80 Y75.995 E67.8627 F909
G1 X81.302 Y75.995 E67.9114 F909
G1 X81.302 Y84.005 E68.2111 F909
G1 X82.603 Y84.005 E68.2598 F909
G1 X82.603 Y75.995 E68.5596 F909
G1 X83.905 Y75.995 E68.6083 F909
G1 X83.905 Y84.005 E68.9080 F909
; Layer 11/50 Z2.2
G0 Z2.2 F300
G0 X75.645 Y75.645 F3000
G1 X84.355 Y75.645 E69.2339 F758
G1 X84.355 Y84.355 E69.5598 F758
G1 X75.645 Y84.355 E69.8857 F758
G1 X75.645 Y75.645 E70.2116 F758
G0 X75.225 Y75.225 F3000
G1 X84.775 Y75.225 E70.5689 F758
G1 X84.775 Y84.775 E70.9263 F758
G1 X75.225 Y84.775 E71.2836 F758
G1 X75.225 Y75.225 E71.6410 F758
G0 X75.995 Y76.095 F3000
G1 X84.005 Y76.095 E71.9407 F909
G1 X84.005 Y77.397 E71.9894 F909
G1 X75.995 Y77.397 E72.2891 F909
G1 X75.995 Y78.698 E72.3378 F909
G1 X84.005 Y78.698 E72.6375 F909
G1 X84.005 Y80 E72.6862 F909
G1 X75.995 Y80 E72.9859 F909
G1 X75.995 Y81.302 E73.0346 F909
G1 X84.005 Y81.302 E73.3344 F909
G1 X84.005 Y82.603 E73.3831 F909
G1 X75.995 Y82.603 E73.6828 F909
G1 X75.995 Y83.905 E73.7315 F909
G1 X84.005 Y83.905 E74.0312 F909
; Layer 12/50 Z2.4
G0 Z2.4 F300
G0 X75.645 Y75.645 F3000
G1 X84.355 Y75.645 E74.3571 F758
G1 X84.355 Y84.355 E74.6830 F758
G1 X75.645 Y84.355 E75.0089 F758
G1 X75.645 Y75.645 E75.3348 F758
G0 X75.225 Y75.225 F3000
G1 X84.775 Y75.225 E75.6922 F758
G1 X84.775 Y84.775 E76.0495 F758
G1 X75.225 Y84.775 E76.4068 F758
G1 X75.225 Y75.225 E76.7642 F758
G0 X76.095 Y75.995 F3000
G1 X76.095 Y84.005 E77.0639 F909
G1 X77.397 Y84.005 E77.1126 F909
G1 X77.397 Y75.995 E77.4123 F909
G1 X78.698 Y75.995 E77.4610 F909
G1 X78.698 Y84.005 E77.7607 F909
G1 X80 Y84.005 E77.8094 F909
G1 X80 Y75.995 E78.1092 F909
G1 X81.302 Y75.995 E78.1579 F909
G1 X81.302 Y84.005 E78.4576 F909
G1 X82.603 Y84.005 E78.5063 F909
G1 X82.603 Y75.995 E78.8060 F909
G1 X83.905 Y75.995 E78.8547 F909
G1 X83.905 Y84.005 E79.1544 F909
; Layer 13/50 Z2.6
G0 Z2.6 F300
G0 X75.645 Y75.645 F3000
G1 X84.355 Y75.645 E79.4803 F758
G1 X84.355 Y84.355 E79.8062 F758
G1 X75.645 Y84.355 E80.1321 F758
G1 X75.645 Y75.645 E80.4581 F758
G0 X75.225 Y75.225 F3000
G1 X84.775 Y75.225 E80.8154 F758
G1 X84.775 Y84.775 E81.1727 F758
G1 X75.225 Y84.775 E81.5301 F758
G1 X75.225 Y75.225 E81.8874 F758
G0 X75.995 Y76.095 F3000
G1 X84.005 Y76.095 E82.1871 F909
G1 X84.005 Y77.397 E82.2358 F909
G1 X75.995 Y77.397 E82.5355 F909
G1 X75.995 Y78.698 E82.5843 F909
G1 X84.005 Y78.698 E82.8840 F909
G1 X84.005 Y80 E82.9327 F909
G1 X75.995 Y80 E83.2324 F909
G1 X75.995 Y81.302 E83.2811 F909
G1 X84.005 Y81.302 E83.5808 F909
G1 X84.005 Y82.603 E83.6295 F909
G1 X75.995 Y82.603 E83.9292 F909
G1 X75.995 Y83.905 E83.9779 F909
G1 X84.005 Y83.905 E84.2776 F909
; Layer 14/50 Z2.8
G0 Z2.8 F300
G0 X75.645 Y75.645 F3000
G1 X84.355 Y75.645 E84.6036 F758
G1 X84.355 Y84.355 E84.9295 F758
G1 X75.645 Y84.355 E85.2554 F758
G1 X75.645 Y75.645 E85.5813 F758
G0 X75.225 Y75.225 F3000
G1 X84.775 Y75.225 E85.9386 F758
G1 X84.775 Y84.775 E86.2960 F758
G1 X75.225 Y84.775 E86.6533 F758
G1 X75.225 Y75.225 E87.0106 F758
G0 X76.095 Y75.995 F3000
G1 X76.095 Y84.005 E87.3103 F909
G1 X77.397 Y84.005 E87.3591 F909
G1 X77.397 Y75.995 E87.6588 F909
G1 X78.698 Y75.995 E87.7075 F909
G1 X78.698 Y84.005 E88.0072 F909
G1 X80 Y84.005 E88.0559 F909
G1 X80 Y75.995 E88.3556 F909
G1 X81.302 Y75.995 E88.4043 F909
G1 X81.302 Y84.005 E88.7040 F909
G1 X82.603 Y84.005 E88.7527 F909
G1 X82.603 Y75.995 E89.0525 F909
G1 X83.905 Y75.995 E89.1012 F909
G1 X83.905 Y84.005 E89.4009 F909
; Layer 15/50 Z3
G0 Z3 F300
G0 X75.645 Y75.645 F3000
G1 X84.355 Y75.645 E89.7268 F758
G1 X84.355 Y84.355 E90.0527 F758
G1 X75.645 Y84.355 E90.3786 F758
G1 X75.645 Y75.645 E90.7045 F758
G0 X75.225 Y75.225 F3000
G1 X84.775 Y75.225 E91.0618 F758
G1 X84.775 Y84.775 E91.4192 F758
G1 X75.225 Y84.775 E91.7765 F758
G1 X75.225 Y75.225 E92.1339 F758
G0 X75.995 Y76.095 F3000
G1 X84.005 Y76.095 E92.4336 F909
G1 X84.005 Y77.397 E92.4823 F909
G1 X75.995 Y77.397 E92.7820 F909
G1 X75.995 Y78.698 E92.8307 F909
G1 X84.005 Y78.698 E93.1304 F909
G1 X84.005 Y80 E93.1791 F909
G1 X75.995 Y80 E93.4788 F909
G1 X75.995 Y81.302 E93.5275 F909
G1 X84.005 Y81.302 E93.8273 F909
G1 X84.005 Y82.603 E93.8760 F909
G1 X75.995 Y82.603 E94.1757 F909
G1 X75.995 Y83.905 E94.2244 F909
G1 X84.005 Y83.905 E94.5241 F909
; Layer 16/50 Z3.2
G0 Z3.2 F300
G0 X75.645 Y75.645 F3000
G1 X84.355 Y75.645 E94.8500 F758
G1 X84.355 Y84.355 E95.1759 F758
G1 X75.645 Y84.355 E95.5018 F758
G1 X75.645 Y75.645 E95.8277 F758
G0 X75.225 Y75.225 F3000
G1 X84.775 Y75.225 E96.1851 F758
G1 X84.775 Y84.775 E96.5424 F758
G1 X75.225 Y84.775 E96.8997 F758
G1 X75.225 Y75.225 E97.2571 F758
G0 X76.095 Y75.995 F3000
G1 X76.095 Y84.005 E97.5568 F909
G1 X77.397 Y84.005 E97.6055 F909
G1 X77.397 Y75.995 E97.9052 F909
G1 X78.698 Y75.995 E97.9539 F909
G1 X78.698 Y84.005 E98.2536 F909
G1 X80 Y84.005 E98.3023 F909
G1 X80 Y75.995 E98.6021 F909
G1 X81.302 Y75.995 E98.6508 F909
G1 X81.302 Y84.005 E98.9505 F909
G1 X82.603 Y84.005 E98.9992 F909
G1 X82.603 Y75.995 E99.2989 F909
G1 X83.905 Y75.995 E99.3476 F909
G1 X83.905 Y84.005 E99.6473 F909
; Layer 17/50 Z3.4
G0 Z3.4 F300
G0 X75.645 Y75.645 F3000
G1 X84.355 Y75.645 E99.9732 F758
G1 X84.355 Y84.355 E100.2991 F758
G1 X75.645 Y84.355 E100.6250 F758
G1 X75.645 Y75.645 E100.9510 F758
G0 X75.225 Y75.225 F3000
G1 X84.775 Y75.225 E101.3083 F758
G1 X84.775 Y84.775 E101.6656 F758
G1 X75.225 Y84.775 E102.0230 F758
G1 X75.225 Y75.225 E102.3803 F758
G0 X75.995 Y76.095 F3000
G1 X84.005 Y76.095 E102.6800 F909
G1 X84.005 Y77.397 E102.7287 F909
G1 X75.995 Y77.397 E103.0284 F909
G1 X75.995 Y78.698 E103.0771 F909
G1 X84.005 Y78.698 E103.3769 F909
G1 X84.005 Y80 E103.4256 F909
G1 X75.995 Y80 E103.7253 F909
G1 X75.995 Y81.302 E103.7740 F909
G1 X84.005 Y81.302 E104.0737 F909
G1 X84.005 Y82.603 E104.1224 F909
G1 X75.995 Y82.603 E104.4221 F909
G1 X75.995 Y83.905 E104.4708 F909
G1 X84.005 Y83.905 E104.7705 F909
; Layer 18/50 Z3.6
G0 Z3.6 F300
G0 X75.645 Y75.645 F3000
G1 X84.355 Y75.645 E105.0965 F758
G1 X84.355 Y84.355 E105.4224 F758
G1 X75.645 Y84.355 E105.7483 F758
G1 X75.645 Y75.645 E106.0742 F758
G0 X75.225 Y75.225 F3000
G1 X84.775 Y75.225 E106.4315 F758
G1 X84.775 Y84.775 E106.7889 F758
G1 X75.225 Y84.775 E107.1462 F758
G1 X75.225 Y75.225 E107.5035 F758
G0 X76.095 Y75.995 F3000
G1 X76.095 Y84.005 E107.8032 F909
G1 X77.397 Y84.005 E107.8520 F909
G1 X77.397 Y75.995 E108.1517 F909
G1 X78.698 Y75.995 E108.2004 F909
G1 X78.698 Y84.005 E108.5001 F909
G1 X80 Y84.005 E108.5488 F909
G1 X80 Y75.995 E108.8485 F909
G1 X81.302 Y75.995 E108.8972 F909
G1 X81.302 Y84.005 E109.1969 F909
G1 X82.603 Y84.005 E109.2456 F909
G1 X82.603 Y75.995 E109.5454 F909
G1 X83.905 Y75.995 E109.5941 F909
G1 X83.905 Y84.005 E109.8938 F909
; Layer 19/50 Z3.8
G0 Z3.8 F300
G0 X75.645 Y75.645 F3000
G1 X84.355 Y75.645 E110.2197 F758
G1 X84.355 Y84.355 E110.5456 F758
G1 X75.645 Y84.355 E110.8715 F758
G1 X75.645 Y75.645 E111.1974 F758
G0 X75.225 Y75.225 F3000
G1 X84.775 Y75.225 E111.5547 F758
G1 X84.775 Y84.775 E111.9121 F758
G1 X75.225 Y84.775 E112.2694 F758
G1 X75.225 Y75.225 E112.6268 F758
G0 X75.995 Y76.095 F3000
G1 X84.005 Y76.095 E112.9265 F909
G1 X84.005 Y77.397 E112.9752 F909
G1 X75.995 Y77.397 E113.2749 F909
G1 X75.995 Y78.698 E113.3236 F909
G1 X84.005 Y78.698 E113.6233 F909
G1 X84.005 Y80 E113.6720 F909
G1 X75.995 Y80 E113.9717 F909
G1 X75.995 Y81.302 E114.0204 F909
G1 X84.005 Y81.302 E114.3202 F909
G1 X84.005 Y82.603 E114.3689 F909
G1 X75.995 Y82.603 E114.6686 F909
G1 X75.995 Y83.905 E114.7173 F909
G1 X84.005 Y83.905 E115.0170 F909
; Layer 20/50 Z4
G0 Z4 F300
G0 X75.645 Y75.645 F3000
G1 X84.355 Y75.645 E115.3429 F758
G1 X84.355 Y84.355 E115.6688 F758
G1 X75.645 Y84.355 E115.9947 F758
G1 X75.645 Y75.645 E116.3206 F758
G0 X75.225 Y75.225 F3000
G1 X84.775 Y75.225 E116.6780 F758
G1 X84.775 Y84.775 E117.0353 F758
G1 X75.225 Y84.775 E117.3926 F758
G1 X75.225 Y75.225 E117.7500 F758
G0 X76.095 Y75.995 F3000
G1 X76.095 Y84.005 E118.0497 F909
G1 X77.397 Y84.005 E118.0984 F909
G1 X77.397 Y75.995 E118.3981 F909
G1 X78.698 Y75.995 E118.4468 F909
G1 X78.698 Y84.005 E118.7465 F909
G1 X80 Y84.005 E118.7952 F909
G1 X80 Y75.995 E119.0950 F909
G1 X81.302 Y75.995 E119.1437 F909
G1 X81.302 Y84.005 E119.4434 F909
G1 X82.603 Y84.005 E119.4921 F909
G1 X82.603 Y75.995 E119.7918 F909
G1 X83.905 Y75.995 E119.8405 F909
G1 X83.905 Y84.005 E120.1402 F909
; Layer 21/50 Z4.2
G0 Z4.2 F300
G0 X75.645 Y75.645 F3000
G1 X84.355 Y75.645 E120.4661 F758
G1 X84.355 Y84.355 E120.7920 F758
G1 X75.645 Y84.355 E121.1179 F758
G1 X75.645 Y75.645 E121.4439 F758
G0 X75.225 Y75.225 F3000
G1 X84.775 Y75.225 E121.8012 F758
G1 X84.775 Y84.775 E122.1585 F758
G1 X75.225 Y84.775 E122.5159 F758
G1 X75.225 Y75.225 E122.8732 F758
G0 X75.995 Y76.095 F3000
G1 X84.005 Y76.095 E123.1729 F909
G1 X84.005 Y77.397 E123.2216 F909
G1 X75.995 Y77.397 E123.5213 F909
G1 X75.995 Y78.698 E123.5700 F909
G1 X84.005 Y78.698 E123.8698 F909
G1 X84.005 Y80 E123.9185 F909
G1 X75.995 Y80 E124.2182 F909
G1 X75.995 Y81.302 E124.2669 F909
G1 X84.005 Y81.302 E124.5666 F909
G1 X84.005 Y82.603 E124.6153 F909
G1 X75.995 Y82.603 E124.9150 F909
G1 X75.995 Y83.905 E124.9637 F909
G1 X84.005 Y83.905 E125.2634 F909
; Layer 22/50 Z4.4
G0 Z4.4 F300
G0 X75.645 Y75.645 F3000
G1 X84.355 Y75.645 E125.5894 F758
G1 X84.355 Y84.355 E125.9153 F758
G1 X75.645 Y84.355 E126.2412 F758
G1 X75.645 Y75.645 E126.5671 F758
G0 X75.225 Y75.225 F3000
G1 X84.775 Y75.225 E126.9244 F758
G1 X84.775 Y84.775 E127.2818 F758
G1 X75.225 Y84.775 E127.6391 F758
G1 X75.225 Y75.225 E127.9964 F758
G0 X76.095 Y75.995 F3000
G1 X76.095 Y84.005 E128.2961 F909
G1 X77.397 Y84.005 E128.3449 F909
G1 X77.397 Y75.995 E128.6446 F909
G1 X78.698 Y75.995 E128.6933 F909
G1 X78.698 Y84.005 E128.9930 F909
G1 X80 Y84.005 E129.0417 F909
G1 X80 Y75.995 E129.3414 F909
G1 X81.302 Y75.995 E129.3901 F909
G1 X81.302 Y84.005 E129.6898 F909
G1 X82.603 Y84.005 E129.7385 F909
G1 X82.603 Y75.995 E130.0383 F909
G1 X83.905 Y75.995 E130.0870 F909
G1 X83.905 Y84.005 E130.3867 F909
; Layer 23/50 Z4.6
G0 Z4.6 F300
G0 X75.645 Y75.645 F3000
G1 X84.355 Y75.645 E130.7126 F758
G1 X84.355 Y84.355 E131.0385 F758
G1 X75.645 Y84.355 E131.3644 F758
G1 X75.645 Y75.645 E131.6903 F758
G0 X75.225 Y75.225 F3000
G1 X84.775 Y75.225 E132.0476 F758
G1 X84.775 Y84.775 E132.4050 F758
G1 X75.225 Y84.775 E132.7623 F758
G1 X75.225 Y75.225 E133.1197 F758
G0 X75.995 Y76.095 F3000
G1 X84.005 Y76.095 E133.4194 F909
G1 X84.005 Y77.397 E133.4681 F909
G1 X75.995 Y77.397 E133.7678 F909
G1 X75.995 Y78.698 E133.8165 F909
G1 X84.005 Y78.698 E134.1162 F909
G1 X84.005 Y80 E134.1649 F909
G1 X75.995 Y80 E134.4646 F909
G1 X75.995 Y81.302 E134.5133 F909
G1 X84.005 Y81.302 E134.8131 F909
G1 X84.005 Y82.603 E134.8618 F909
G1 X75.995 Y82.603 E135.1615 F909
G1 X75.995 Y83.905 E135.2102 F909
G1 X84.005 Y83.905 E135.5099 F909
; Layer 24/50 Z4.8
G0 Z4.8 F300
G0 X75.645 Y75.645 F3000
G1 X84.355 Y75.645 E135.8358 F758
G1 X84.355 Y84.355 E136.1617 F758
G1 X75.645 Y84.355 E136.4876 F758
G1 X75.645 Y75.645 E136.8135 F758
G0 X75.225 Y75.225 F3000
G1 X84.775 Y75.225 E137.1709 F758
G1 X84.775 Y84.775 E137.5282 F758
G1 X75.225 Y84.775 E137.8855 F758
G1 X75.225 Y75.225 E138.2429 F758
G0 X76.095 Y75.995 F3000
G1 X76.095 Y84.005 E138.5426 F909
G1 X77.397 Y84.005 E138.5913 F909
G1 X77.397 Y75.995 E138.8910 F909
G1 X78.698 Y75.995 E138.9397 F909
G1 X78.698 Y84.005 E139.2394 F909
G1 X80 Y84.005 E139.2881 F909
G1 X80 Y75.995 E139.5879 F909
G1 X81.302 Y75.995 E139.6366 F909
G1 X81.302 Y84.005 E139.9363 F909
G1 X82.603 Y84.005 E139.9850 F909
G1 X82.603 Y75.995 E140.2847 F909
G1 X83.905 Y75.995 E140.3334 F909
G1 X83.905 Y84.005 E140.6331 F909
; Layer 25/50 Z5
G0 Z5 F300
G0 X75.645 Y75.645 F3000
G1 X84.355 Y75.645 E140.9590 F758
G1 X84.355 Y84.355 E141.2849 F758
G1 X75.645 Y84.355 E141.6108 F758
G1 X75.645 Y75.645 E141.9368 F758
G0 X75.225 Y75.225 F3000
G1 X84.775 Y75.225 E142.2941 F758
G1 X84.775 Y84.775 E142.6514 F758
G1 X75.225 Y84.775 E143.0088 F758
G1 X75.225 Y75.225 E143.3661 F758
G0 X75.995 Y76.095 F3000
G1 X84.005 Y76.095 E143.6658 F909
G1 X84.005 Y77.397 E143.7145 F909
G1 X75.995 Y77.397 E144.0142 F909
G1 X75.995 Y78.698 E144.0629 F909
G1 X84.005 Y78.698 E144.3627 F909
G1 X84.005 Y80 E144.4114 F909
G1 X75.995 Y80 E144.7111 F909
G1 X75.995 Y81.302 E144.7598 F909
G1 X84.005 Y81.302 E145.0595 F909
G1 X84.005 Y82.603 E145.1082 F909
G1 X75.995 Y82.603 E145.4079 F909
G1 X75.995 Y83.905 E145.4566 F909
G1 X84.005 Y83.905 E145.7563 F909
; Layer 26/50 Z5.2
G0 Z5.2 F300
G0 X75.645 Y75.645 F3000
G1 X84.355 Y75.645 E146.0823 F758
G1 X84.355 Y84.355 E146.4082 F758
G1 X75.645 Y84.355 E146.7341 F758
G1 X75.645 Y75.645 E147.0600 F758
G0 X75.225 Y75.225 F3000
G1 X84.775 Y75.225 E147.4173 F758
G1 X84.775 Y84.775 E147.7747 F758
G1 X75.225 Y84.775 E148.1320 F758
G1 X75.225 Y75.225 E148.4893 F758
G0 X76.095 Y75.995 F3000
G1 X76.095 Y84.005 E148.7890 F909
G1 X77.397 Y84.005 E148.8378 F909
G1 X77.397 Y75.995 E149.1375 F909
G1 X78.698 Y75.995 E149.1862 F909
G1 X78.698 Y84.005 E149.4859 F909
G1 X80 Y84.005 E149.5346 F909
G1 X80 Y75.995 E149.8343 F909
G1 X81.302 Y75.995 E149.8830 F909
G1 X81.302 Y84.005 E150.1827 F909
G1 X82.603 Y84.005 E150.2314 F909
G1 X82.603 Y75.995 E150.5312 F909
G1 X83.905 Y75.995 E150.5799 F909
G1 X83.905 Y84.005 E150.8796 F909
; Layer 27/50 Z5.4
G0 Z5.4 F300
G0 X75.645 Y75.645 F3000
G1 X84.355 Y75.645 E151.2055 F758
G1 X84.355 Y84.355 E151.5314 F758
G1 X75.645 Y84.355 E151.8573 F758
G1 X75.645 Y75.645 E152.1832 F758
G0 X75.225 Y75.225 F3000
G1 X84.775 Y75.225 E152.5405 F758
G1 X84.775 Y84.775 E152.8979 F758
G1 X75.225 Y84.775 E153.2552 F758
G1 X75.225 Y75.225 E153.6126 F758
G0 X75.995 Y76.095 F3000
G1 X84.005 Y76.095 E153.9123 F909
G1 X84.005 Y77.397 E153.9610 F909
G1 X75.995 Y77.397 E154.2607 F909
G1 X75.995 Y78.698 E154.3094 F909
G1 X84.005 Y78.698 E154.6091 F909
G1 X84.005 Y80 E154.6578 F909
G1 X75.995 Y80 E154.9575 F909
G1 X75.995 Y81.302 E155.0062 F909
G1 X84.005 Y81.302 E155.3060 F909
G1 X84.005 Y82.603 E155.3547 F909
G1 X75.995 Y82.603 E155.6544 F909
G1 X75.995 Y83.905 E155.7031 F909
G1 X84.005 Y83.905 E156.0028 F909
; Layer 28/50 Z5.6
G0 Z5.6 F300
G0 X75.645 Y75.645 F3000
G1 X84.355 Y75.645 E156.3287 F758
G1 X84.355 Y84.355 E156.6546 F758
G1 X75.645 Y84.355 E156.9805 F758
G1 X75.645 Y75.645 E157.3064 F758
G0 X75.225 Y75.225 F3000
G1 X84.775 Y75.225 E157.6638 F758
G1 X84.775 Y84.775 E158.0211 F758
G1 X75.225 Y84.775 E158.3784 F758
G1 X75.225 Y75.225 E158.7358 F758
G0 X76.095 Y75.995 F3000
G1 X76.095 Y84.005 E159.0355 F909
G1 X77.397 Y84.005 E159.0842 F909
G1 X77.397 Y75.995 E159.3839 F909
G1 X78.698 Y75.995 E159.4326 F909
G1 X78.698 Y84.005 E159.7323 F909
G1 X80 Y84.005 E159.7810 F909
G1 X80 Y75.995 E160.0808 F909
G1 X81.302 Y75.995 E160.1295 F909
G1 X81.302 Y84.005 E160.4292 F909
G1 X82.603 Y84.005 E160.4779 F909
G1 X82.603 Y75.995 E160.7776 F909
G1 X83.905 Y75.995 E160.8263 F909
G1 X83.905 Y84.005 E161.1260 F909
; Layer 29/50 Z5.8
G0 Z5.8 F300
G0 X75.645 Y75.645 F3000
G1 X84.355 Y75.645 E161.4519 F758
G1 X84.355 Y84.355 E161.7778 F758
G1 X75.645 Y84.355 E162.1037 F758
G1 X75.645 Y75.645 E162.4297 F758
G0 X75.225 Y75.225 F3000
G1 X84.775 Y75.225 E162.7870 F758
G1 X84.775 Y84.775 E163.1443 F758
G1 X75.225 Y84.775 E163.5017 F758
G1 X75.225 Y75.225 E163.8590 F758
G0 X75.995 Y76.095 F3000
G1 X84.005 Y76.095 E164.1587 F909
G1 X84.005 Y77.397 E164.2074 F909
G1 X75.995 Y77.397 E164.5071 F909
G1 X75.995 Y78.698 E164.5558 F909
G1 X84.005 Y78.698 E164.8556 F909
G1 X84.005 Y80 E164.9043 F909
G1 X75.995 Y80 E165.2040 F909
G1 X75.995 Y81.302 E165.2527 F909
G1 X84.005 Y81.302 E165.5524 F909
G1 X84.005 Y82.603 E165.6011 F909
G1 X75.995 Y82.603 E165.9008 F909
G1 X75.995 Y83.905 E165.9495 F909
G1 X84.005 Y83.905 E166.2492 F909
; Layer 30/50 Z6
G0 Z6 F300
G0 X75.645 Y75.645 F3000
G1 X84.355 Y75.645 E166.5752 F758
G1 X84.355 Y84.355 E166.9011 F758
G1 X75.645 Y84.355 E167.2270 F758
G1 X75.645 Y75.645 E167.5529 F758
G0 X75.225 Y75.225 F3000
G1 X84.775 Y75.225 E167.9102 F758
G1 X84.775 Y84.775 E168.2676 F758
G1 X75.225 Y84.775 E168.6249 F758
G1 X75.225 Y75.225 E168.9822 F758
G0 X76.095 Y75.995 F3000
G1 X76.095 Y84.005 E169.2819 F909
G1 X77.397 Y84.005 E169.3307 F909
G1 X77.397 Y75.995 E169.6304 F909
G1 X78.698 Y75.995 E169.6791 F909
G1 X78.698 Y84.005 E169.9788 F909
G1 X80 Y84.005 E170.0275 F909
G1 X80 Y75.995 E170.3272 F909
G1 X81.302 Y75.995 E170.3759 F909
G1 X81.302 Y84.005 E170.6756 F909
G1 X82.603 Y84.005 E170.7243 F909
G1 X82.603 Y75.995 E171.0241 F909
G1 X83.905 Y75.995 E171.0728 F909
G1 X83.905 Y84.005 E171.3725 F909
; Layer 31/50 Z6.2
G0 Z6.2 F300
G0 X75.645 Y75.645 F3000
G1 X84.355 Y75.645 E171.6984 F758
G1 X84.355 Y84.355 E172.0243 F758
G1 X75.645 Y84.355 E172.3502 F758
G1 X75.645 Y75.645 E172.6761 F758
G0 X75.225 Y75.225 F3000
G1 X84.775 Y75.225 E173.0334 F758
G1 X84.775 Y84.775 E173.3908 F758
G1 X75.225 Y84.775 E173.7481 F758
G1 X75.225 Y75.225 E174.1055 F758
G0 X75.995 Y76.095 F3000
G1 X84.005 Y76.095 E174.4052 F909
G1 X84.005 Y77.397 E174.4539 F909
G1 X75.995 Y77.397 E174.7536 F909
G1 X75.995 Y78.698 E174.8023 F909
G1 X84.005 Y78.698 E175.1020 F909
G1 X84.005 Y80 E175.1507 F909
G1 X75.995 Y80 E175.4504 F909
G1 X75.995 Y81.302 E175.4991 F909
G1 X84.005 Y81.302 E175.7989 F909
G1 X84.005 Y82.603 E175.8476 F909
G1 X75.995 Y82.603 E176.1473 F909
G1 X75.995 Y83.905 E176.1960 F909
G1 X84.005 Y83.905 E176.4957 F909
; Layer 32/50 Z6.4
G0 Z6.4 F300
G0 X75.645 Y75.645 F3000
G1 X84.355 Y75.645 E176.8216 F758
G1 X84.355 Y84.355 E177.1475 F758
G1 X75.645 Y84.355 E177.4734 F758
G1 X75.645 Y75.645 E177.7993 F758
G0 X75.225 Y75.225 F3000
G1 X84.775 Y75.225 E178.1567 F758
G1 X84.775 Y84.775 E178.5140 F758
G1 X75.225 Y84.775 E178.8713 F758
G1 X75.225 Y75.225 E179.2287 F758
G0 X76.095 Y75.995 F3000
G1 X76.095 Y84.005 E179.5284 F909
G1 X77.397 Y84.005 E179.5771 F909
G1 X77.397 Y75.995 E179.8768 F909
G1 X78.698 Y75.995 E179.9255 F909
G1 X78.698 Y84.005 E180.2252 F909
G1 X80 Y84.005 E180.2739 F909
G1 X80 Y75.995 E180.5737 F909
G1 X81.302 Y75.995 E180.6224 F909
G1 X81.302 Y84.005 E180.9221 F909
G1 X82.603 Y84.005 E180.9708 F909
G1 X82.603 Y75.995 E181.2705 F909
G1 X83.905 Y75.995 E181.3192 F909
G1 X83.905 Y84.005 E181.6189 F909
; Layer 33/50 Z6.6
G0 Z6.6 F300
G0 X75.645 Y75.645 F3000
G1 X84.355 Y75.645 E181.9448 F758
G1 X84.355 Y84.355 E182.2707 F758
G1 X75.645 Y84.355 E182.5966 F758
G1 X75.645 Y75.645 E182.9226 F758
G0 X75.225 Y75.225 F3000
G1 X84.775 Y75.225 E183.2799 F758
G1 X84.775 Y84.775 E183.6372 F758
G1 X75.225 Y84.775 E183.9946 F758
G1 X75.225 Y75.225 E184.3519 F758
G0 X75.995 Y76.095 F3000
G1 X84.005 Y76.095 E184.6516 F909
G1 X84.005 Y77.397 E184.7003 F909
G1 X75.995 Y77.397 E185.0000 F909
G1 X75.995 Y78.698 E185.0487 F909
G1 X84.005 Y78.698 E185.3485 F909
G1 X84.005 Y80 E185.3972 F909
G1 X75.995 Y80 E185.6969 F909
G1 X75.995 Y81.302 E185.7456 F909
G1 X84.005 Y81.302 E186.0453 F909
G1 X84.005 Y82.603 E186.0940 F909
G1 X75.995 Y82.603 E186.3937 F909
G1 X75.995 Y83.905 E186.4424 F909
G1 X84.005 Y83.905 E186.7421 F909
; Layer 34/50 Z6.8
G0 Z6.8 F300
G0 X75.645 Y75.645 F3000
G1 X84.355 Y75.645 E187.0681 F758
G1 X84.355 Y84.355 E187.3940 F758
G1 X75.645 Y84.355 E187.7199 F758
G1 X75.645 Y75.645 E188.0458 F758
G0 X75.225 Y75.225 F3000
G1 X84.775 Y75.225 E188.4031 F758
G1 X84.775 Y84.775 E188.7605 F758
G1 X75.225 Y84.775 E189.1178 F758
G1 X75.225 Y75.225 E189.4751 F758
G0 X76.095 Y75.995 F3000
G1 X76.095 Y84.005 E189.7748 F909
G1 X77.397 Y84.005 E189.8236 F909
G1 X77.397 Y75.995 E190.1233 F909
G1 X78.698 Y75.995 E190.1720 F909
G1 X78.698 Y84.005 E190.4717 F909
G1 X80 Y84.005 E190.5204 F909
G1 X80 Y75.995 E190.8201 F909
G1 X81.302 Y75.995 E190.8688 F909
G1 X81.302 Y84.005 E191.1685 F909
G1 X82.603 Y84.005 E191.2172 F909
G1 X82.603 Y75.995 E191.5170 F909
G1 X83.905 Y75.995 E191.5657 F909
G1 X83.905 Y84.005 E191.8654 F909
; Layer 35/50 Z7
G0 Z7 F300
G0 X75.645 Y75.645 F3000
G1 X84.355 Y75.645 E192.1913 F758
G1 X84.355 Y84.355 E192.5172 F758
G1 X75.645 Y84.355 E192.8431 F758
G1 X75.645 Y75.645 E193.1690 F758
G0 X75.225 Y75.225 F3000
G1 X84.775 Y75.225 E193.5263 F758
G1 X84.775 Y84.775 E193.8837 F758
G1 X75.225 Y84.775 E194.2410 F758
G1 X75.225 Y75.225 E194.5984 F758
G0 X75.995 Y76.095 F3000
G1 X84.005 Y76.095 E194.8981 F909
G1 X84.005 Y77.397 E194.9468 F909
G1 X75.995 Y77.397 E195.2465 F909
G1 X75.995 Y78.698 E195.2952 F909
G1 X84.005 Y78.698 E195.5949 F909
G1 X84.005 Y80 E195.6436 F909
G1 X75.995 Y80 E195.9433 F909
G1 X75.995 Y81.302 E195.9920 F909
G1 X84.005 Y81.302 E196.2918 F909
G1 X84.005 Y82.603 E196.3405 F909
G1 X75.995 Y82.603 E196.6402 F909
G1 X75.995 Y83.905 E196.6889 F909
G1 X84.005 Y83.905 E196.9886 F909
; Layer 36/50 Z7.2
G0 Z7.2 F300
G0 X75.645 Y75.645 F3000
G1 X84.355 Y75.645 E197.3145 F758
G1 X84.355 Y84.355 E197.6404 F758
G1 X75.645 Y84.355 E197.9663 F758
G1 X75.645 Y75.645 E198.2922 F758
G0 X75.225 Y75.225 F3000
G1 X84.775 Y75.225 E198.6496 F758
G1 X84.775 Y84.775 E199.0069 F758
G1 X75.225 Y84.775 E199.3642 F758
G1 X75.225 Y75.225 E199.7216 F758
G0 X76.095 Y75.995 F3000
G1 X76.095 Y84.005 E200.0213 F909
G1 X77.397 Y84.005 E200.0700 F909
G1 X77.397 Y75.995 E200.3697 F909
G1 X78.698 Y75.995 E200.4184 F909
G1 X78.698 Y84.005 E200.7181 F909
G1 X80 Y84.005 E200.7668 F909
G1 X80 Y75.995 E201.0666 F909
G1 X81.302 Y75.995 E201.1153 F909
G1 X81.302 Y84.005 E201.4150 F909
G1 X82.603 Y84.005 E201.4637 F909
G1 X82.603 Y75.995 E201.7634 F909
G1 X83.905 Y75.995 E201.8121 F909
G1 X83.905 Y84.005 E202.1118 F909
; Layer 37/50 Z7.4
G0 Z7.4 F300
G0 X75.645 Y75.645 F3000
G1 X84.355 Y75.645 E202.4377 F758
G1 X84.355 Y84.355 E202.7636 F758
G1 X75.645 Y84.355 E203.0895 F758
G1 X75.645 Y75.645 E203.4155 F758
G0 X75.225 Y75.225 F3000
G1 X84.775 Y75.225 E203.7728 F758
G1 X84.775 Y84.775 E204.1301 F758
G1 X75.225 Y84.775 E204.4875 F758
G1 X75.225 Y75.225 E204.8448 F758
G0 X75.995 Y76.095 F3000
G1 X84.005 Y76.095 E205.1445 F909
G1 X84.005 Y77.397 E205.1932 F909
G1 X75.995 Y77.397 E205.4929 F909
G1 X75.995 Y78.698 E205.5416 F909
G1 X84.005 Y78.698 E205.8414 F909
G1 X84.005 Y80 E205.8901 F909
G1 X75.995 Y80 E206.1898 F909
G1 X75.995 Y81.302 E206.2385 F909
G1 X84.005 Y81.302 E206.5382 F909
G1 X84.005 Y82.603 E206.5869 F909
G1 X75.995 Y82.603 E206.8866 F909
G1 X75.995 Y83.905 E206.9353 F909
G1 X84.005 Y83.905 E207.2350 F909
; Layer 38/50 Z7.6
G0 Z7.6 F300
G0 X75.645 Y75.645 F3000
G1 X84.355 Y75.645 E207.5610 F758
G1 X84.355 Y84.355 E207.8869 F758
G1 X75.645 Y84.355 E208.2128 F758
G1 X75.645 Y75.645 E208.5387 F758
G0 X75.225 Y75.225 F3000
G1 X84.775 Y75.225 E208.8960 F758
G1 X84.775 Y84.775 E209.2534 F758
G1 X75.225 Y84.775 E209.6107 F758
G1 X75.225 Y75.225 E209.9680 F758
G0 X76.095 Y75.995 F3000
G1 X76.095 Y84.005 E210.2677 F909
G1 X77.397 Y84.005 E210.3165 F909
G1 X77.397 Y75.995 E210.6162 F909
G1 X78.698 Y75.995 E210.6649 F909
G1 X78.698 Y84.005 E210.9646 F909
G1 X80 Y84.005 E211.0133 F909
G1 X80 Y75.995 E211.3130 F909
G1 X81.302 Y75.995 E211.3617 F909
G1 X81.302 Y84.005 E211.6614 F909
G1 X82.603 Y84.005 E211.7101 F909
G1 X82.603 Y75.995 E212.0099 F909
G1 X83.905 Y75.995 E212.0586 F909
G1 X83.905 Y84.005 E212.3583 F909
; Layer 39/50 Z7.8
G0 Z7.8 F300
G0 X75.645 Y75.645 F3000
G1 X84.355 Y75.645 E212.6842 F758
G1 X84.355 Y84.355 E213.0101 F758
G1 X75.645 Y84.355 E213.3360 F758
G1 X75.645 Y75.645 E213.6619 F758
G0 X75.225 Y75.225 F3000
G1 X84.775 Y75.225 E214.0192 F758
G1 X84.775 Y84.775 E214.3766 F758
G1 X75.225 Y84.775 E214.7339 F758
G1 X75.225 Y75.225 E215.0913 F758
G0 X75.995 Y76.095 F3000
G1 X84.005 Y76.095 E215.3910 F909
G1 X84.005 Y77.397 E215.4397 F909
G1 X75.995 Y77.397 E215.7394 F909
G1 X75.995 Y78.698 E215.7881 F909
G1 X84.005 Y78.698 E216.0878 F909
G1 X84.005 Y80 E216.1365 F909
G1 X75.995 Y80 E216.4362 F909
G1 X75.995 Y81.302 E216.4849 F909
G1 X84.005 Y81.302 E216.7847 F909
G1 X84.005 Y82.603 E216.8334 F909
G1 X75.995 Y82.603 E217.1331 F909
G1 X75.995 Y83.905 E217.1818 F909
G1 X84.005 Y83.905 E217.4815 F909
; Layer 40/50 Z8
G0 Z8 F300
G0 X75.645 Y75.645 F3000
G1 X84.355 Y75.645 E217.8074 F758
G1 X84.355 Y84.355 E218.1333 F758
G1 X75.645 Y84.355 E218.4592 F758
G1 X75.645 Y75.645 E218.7851 F758
G0 X75.225 Y75.225 F3000
G1 X84.775 Y75.225 E219.1425 F758
G1 X84.775 Y84.775 E219.4998 F758
G1 X75.225 Y84.775 E219.8571 F758
G1 X75.225 Y75.225 E220.2145 F758
G0 X76.095 Y75.995 F3000
G1 X76.095 Y84.005 E220.5142 F909
G1 X77.397 Y84.005 E220.5629 F909
G1 X77.397 Y75.995 E220.8626 F909
G1 X78.698 Y75.995 E220.9113 F909
G1 X78.698 Y84.005 E221.2110 F909
G1 X80 Y84.005 E221.2597 F909
G1 X80 Y75.995 E221.5595 F909
G1 X81.302 Y75.995 E221.6082 F909
G1 X81.302 Y84.005 E221.9079 F909
G1 X82.603 Y84.005 E221.9566 F909
G1 X82.603 Y75.995 E222.2563 F909
G1 X83.905 Y75.995 E222.3050 F909
G1 X83.905 Y84.005 E222.6047 F909
; Layer 41/50 Z8.2
G0 Z8.2 F300
G0 X75.645 Y75.645 F3000
G1 X84.355 Y75.645 E222.9306 F758
G1 X84.355 Y84.355 E223.2565 F758
G1 X75.645 Y84.355 E223.5824 F758
G1 X75.645 Y75.645 E223.9084 F758
G0 X75.225 Y75.225 F3000
G1 X84.775 Y75.225 E224.2657 F758
G1 X84.775 Y84.775 E224.6230 F758
G1 X75.225 Y84.775 E224.9804 F758
G1 X75.225 Y75.225 E225.3377 F758
G0 X75.995 Y76.095 F3000
G1 X84.005 Y76.095 E225.6374 F909
G1 X84.005 Y77.397 E225.6861 F909
G1 X75.995 Y77.397 E225.9858 F909
G1 X75.995 Y78.698 E226.0345 F909
G1 X84.005 Y78.698 E226.3343 F909
G1 X84.005 Y80 E226.3830 F909
G1 X75.995 Y80 E226.6827 F909
G1 X75.995 Y81.302 E226.7314 F909
G1 X84.005 Y81.302 E227.0311 F909
G1 X84.005 Y82.603 E227.0798 F909
G1 X75.995 Y82.603 E227.3795 F909
G1 X75.995 Y83.905 E227.4282 F909
G1 X84.005 Y83.905 E227.7279 F909
; Layer 42/50 Z8.4
G0 Z8.4 F300
G0 X75.645 Y75.645 F3000
G1 X84.355 Y75.645 E228.0539 F758
G1 X84.355 Y84.355 E228.3798 F758
G1 X75.645 Y84.355 E228.7057 F758
G1 X75.645 Y75.645 E229.0316 F758
G0 X75.225 Y75.225 F3000
G1 X84.775 Y75.225 E229.3889 F758
G1 X84.775 Y84.775 E229.7463 F758
G1 X75.225 Y84.775 E230.1036 F758
G1 X75.225 Y75.225 E230.4609 F758
G0 X76.095 Y75.995 F3000
G1 X76.095 Y84.005 E230.7606 F909
G1 X77.397 Y84.005 E230.8094 F909
G1 X77.397 Y75.995 E231.1091 F909
G1 X78.698 Y75.995 E231.1578 F909
G1 X78.698 Y84.005 E231.4575 F909
G1 X80 Y84.005 E231.5062 F909
G1 X80 Y75.995 E231.8059 F909
G1 X81.302 Y75.995 E231.8546 F909
G1 X81.302 Y84.005 E232.1543 F909
G1 X82.603 Y84.005 E232.2030 F909
G1 X82.603 Y75.995 E232.5027 F909
G1 X83.905 Y75.995 E232.5515 F909
G1 X83.905 Y84.005 E232.8512 F909
; Layer 43/50 Z8.6
G0 Z8.6 F300
G0 X75.645 Y75.645 F3000
G1 X84.355 Y75.645 E233.1771 F758
G1 X84.355 Y84.355 E233.5030 F758
G1 X75.645 Y84.355 E233.8289 F758
G1 X75.645 Y75.645 E234.1548 F758
G0 X75.225 Y75.225 F3000
G1 X84.775 Y75.225 E234.5121 F758
G1 X84.775 Y84.775 E234.8695 F758
G1 X75.225 Y84.775 E235.2268 F758
G1 X75.225 Y75.225 E235.5842 F758
G0 X75.995 Y76.095 F3000
G1 X84.005 Y76.095 E235.8839 F909
G1 X84.005 Y77.397 E235.9326 F909
G1 X75.995 Y77.397 E236.2323 F909
G1 X75.995 Y78.698 E236.2810 F909
G1 X84.005 Y78.698 E236.5807 F909
G1 X84.005 Y80 E236.6294 F909
G1 X75.995 Y80 E236.9291 F909
G1 X75.995 Y81.302 E236.9778 F909
G1 X84.005 Y81.302 E237.2776 F909
G1 X84.005 Y82.603 E237.3263 F909
G1 X75.995 Y82.603 E237.6260 F909
G1 X75.995 Y83.905 E237.6747 F909
G1 X84.005 Y83.905 E237.9744 F909
; Layer 44/50 Z8.8
G0 Z8.8 F300
G0 X75.645 Y75.645 F3000
G1 X84.355 Y75.645 E238.3003 F758
G1 X84.355 Y84.355 E238.6262 F758
G1 X75.645 Y84.355 E238.9521 F758
G1 X75.645 Y75.645 E239.2780 F758
G0 X75.225 Y75.225 F3000
G1 X84.775 Y75.225 E239.6354 F758
G1 X84.775 Y84.775 E239.9927 F758
G1 X75.225 Y84.775 E240.3500 F758
G1 X75.225 Y75.225 E240.7074 F758
G0 X76.095 Y75.995 F3000
G1 X76.095 Y84.005 E241.0071 F909
G1 X77.397 Y84.005 E241.0558 F909
G1 X77.397 Y75.995 E241.3555 F909
G1 X78.698 Y75.995 E241.4042 F909
G1 X78.698 Y84.005 E241.7039 F909
G1 X80 Y84.005 E241.7526 F909
G1 X80 Y75.995 E242.0524 F909
G1 X81.302 Y75.995 E242.1011 F909
G1 X81.302 Y84.005 E242.4008 F909
G1 X82.603 Y84.005 E242.4495 F909
G1 X82.603 Y75.995 E242.7492 F909
G1 X83.905 Y75.995 E242.7979 F909
G1 X83.905 Y84.005 E243.0976 F909
; Layer 45/50 Z9
G0 Z9 F300
G0 X75.645 Y75.645 F3000
G1 X84.355 Y75.645 E243.4235 F758
G1 X84.355 Y84.355 E243.7494 F758
G1 X75.645 Y84.355 E244.0753 F758
G1 X75.645 Y75.645 E244.4013 F758
G0 X75.225 Y75.225 F3000
G1 X84.775 Y75.225 E244.7586 F758
G1 X84.775 Y84.775 E245.1159 F758
G1 X75.225 Y84.775 E245.4733 F758
G1 X75.225 Y75.225 E245.8306 F758
G0 X75.995 Y76.095 F3000
G1 X84.005 Y76.095 E246.1303 F909
G1 X84.005 Y77.397 E246.1790 F909
G1 X75.995 Y77.397 E246.4787 F909
G1 X75.995 Y78.698 E246.5274 F909
G1 X84.005 Y78.698 E246.8272 F909
G1 X84.005 Y80 E246.8759 F909
G1 X75.995 Y80 E247.1756 F909
G1 X75.995 Y81.302 E247.2243 F909
G1 X84.005 Y81.302 E247.5240 F909
G1 X84.005 Y82.603 E247.5727 F909
G1 X75.995 Y82.603 E247.8724 F909
G1 X75.995 Y83.905 E247.9211 F909
G1 X84.005 Y83.905 E248.2208 F909
; Layer 46/50 Z9.2
G0 Z9.2 F300
G0 X75.645 Y75.645 F3000
G1 X84.355 Y75.645 E248.5468 F758
G1 X84.355 Y84.355 E248.8727 F758
G1 X75.645 Y84.355 E249.1986 F758
G1 X75.645 Y75.645 E249.5245 F758
G0 X75.225 Y75.225 F3000
G1 X84.775 Y75.225 E249.8818 F758
G1 X84.775 Y84.775 E250.2392 F758
G1 X75.225 Y84.775 E250.5965 F758
G1 X75.225 Y75.225 E250.9538 F758
G0 X76.095 Y75.995 F3000
G1 X76.095 Y84.005 E251.2535 F909
G1 X77.397 Y84.005 E251.3023 F909
G1 X77.397 Y75.995 E251.6020 F909
G1 X78.698 Y75.995 E251.6507 F909
G1 X78.698 Y84.005 E251.9504 F909
G1 X80 Y84.005 E251.9991 F909
G1 X80 Y75.995 E252.2988 F909
G1 X81.302 Y75.995 E252.3475 F909
G1 X81.302 Y84.005 E252.6472 F909
G1 X82.603 Y84.005 E252.6959 F909
G1 X82.603 Y75.995 E252.9956 F909
G1 X83.905 Y75.995 E253.0444 F909
G1 X83.905 Y84.005 E253.3441 F909
; Layer 47/50 Z9.4
G0 Z9.4 F300
G0 X75.645 Y75.645 F3000
G1 X84.355 Y75.645 E253.6700 F758
G1 X84.355 Y84.355 E253.9959 F758
G1 X75.645 Y84.355 E254.3218 F758
G1 X75.645 Y75.645 E254.6477 F758
G0 X75.225 Y75.225 F3000
G1 X84.775 Y75.225 E255.0050 F758
G1 X84.775 Y84.775 E255.3624 F758
G1 X75.225 Y84.775 E255.7197 F758
G1 X75.225 Y75.225 E256.0771 F758
G0 X75.995 Y76.095 F3000
G1 X84.005 Y76.095 E256.3768 F909
G1 X84.005 Y77.397 E256.4255 F909
G1 X75.995 Y77.397 E256.7252 F909
G1 X75.995 Y78.698 E256.7739 F909
G1 X84.005 Y78.698 E257.0736 F909
G1 X84.005 Y80 E257.1223 F909
G1 X75.995 Y80 E257.4220 F909
G1 X75.995 Y81.302 E257.4707 F909
G1 X84.005 Y81.302 E257.7705 F909
G1 X84.005 Y82.603 E257.8192 F909
G1 X75.995 Y82.603 E258.1189 F909
G1 X75.995 Y83.905 E258.1676 F909
G1 X84.005 Y83.905 E258.4673 F909
; Layer 48/50 Z9.6 solid
G0 Z9.6 F300
G0 X75.645 Y75.645 F3000
G1 X84.355 Y75.645 E258.7932 F1278
G1 X84.355 Y84.355 E259.1191 F1278
G1 X75.645 Y84.355 E259.4450 F1278
G1 X75.645 Y75.645 E259.7709 F1278
G0 X75.225 Y75.225 F3000
G1 X84.775 Y75.225 E260.1283 F1278
G1 X84.775 Y84.775 E260.4856 F1278
G1 X75.225 Y84.775 E260.8429 F1278
G1 X75.225 Y75.225 E261.2003 F1278
G0 X76.095 Y75.995 F3000
G1 X76.095 Y84.005 E261.5000 F1534
G1 X76.506 Y84.005 E261.5154 F1534
G1 X76.506 Y75.995 E261.8151 F1534
G1 X76.917 Y75.995 E261.8305 F1534
G1 X76.917 Y84.005 E262.1302 F1534
G1 X77.328 Y84.005 E262.1456 F1534
G1 X77.328 Y75.995 E262.4453 F1534
G1 X77.739 Y75.995 E262.4607 F1534
G1 X77.739 Y84.005 E262.7604 F1534
G1 X78.15 Y84.005 E262.7758 F1534
G1 X78.15 Y75.995 E263.0755 F1534
G1 X78.561 Y75.995 E263.0909 F1534
G1 X78.561 Y84.005 E263.3906 F1534
G1 X78.972 Y84.005 E263.4060 F1534
G1 X78.972 Y75.995 E263.7057 F1534
G1 X79.383 Y75.995 E263.7210 F1534
G1 X79.383 Y84.005 E264.0208 F1534
G1 X79.794 Y84.005 E264.0361 F1534
G1 X79.794 Y75.995 E264.3359 F1534
G1 X80.206 Y75.995 E264.3512 F1534
G1 X80.206 Y84.005 E264.6510 F1534
G1 X80.617 Y84.005 E264.6663 F1534
G1 X80.617 Y75.995 E264.9661 F1534
G1 X81.028 Y75.995 E264.9814 F1534
G1 X81.028 Y84.005 E265.2811 F1534
G1 X81.439 Y84.005 E265.2965 F1534
G1 X81.439 Y75.995 E265.5962 F1534
G1 X81.85 Y75.995 E265.6116 F1534
G1 X81.85 Y84.005 E265.9113 F1534
G1 X82.261 Y84.005 E265.9267 F1534
G1 X82.261 Y75.995 E266.2264 F1534
G1 X82.672 Y75.995 E266.2418 F1534
G1 X82.672 Y84.005 E266.5415 F1534
G1 X83.083 Y84.005 E266.5569 F1534
G1 X83.083 Y75.995 E266.8566 F1534
G1 X83.494 Y75.995 E266.8720 F1534
G1 X83.494 Y84.005 E267.1717 F1534
G1 X83.905 Y84.005 E267.1871 F1534
G1 X83.905 Y75.995 E267.4868 F1534
; Layer 49/50 Z9.8 solid
G0 Z9.8 F300
G0 X75.645 Y75.645 F3000
G1 X84.355 Y75.645 E267.8127 F1278
G1 X84.355 Y84.355 E268.1386 F1278
G1 X75.645 Y84.355 E268.4645 F1278
G1 X75.645 Y75.645 E268.7905 F1278
G0 X75.225 Y75.225 F3000
G1 X84.775 Y75.225 E269.1478 F1278
G1 X84.775 Y84.775 E269.5051 F1278
G1 X75.225 Y84.775 E269.8625 F1278
G1 X75.225 Y75.225 E270.2198 F1278
G0 X75.995 Y76.095 F3000
G1 X84.005 Y76.095 E270.5195 F1534
G1 X84.005 Y76.506 E270.5349 F1534
G1 X75.995 Y76.506 E270.8346 F1534
G1 X75.995 Y76.917 E270.8500 F1534
G1 X84.005 Y76.917 E271.1497 F1534
G1 X84.005 Y77.328 E271.1651 F1534
G1 X75.995 Y77.328 E271.4648 F1534
G1 X75.995 Y77.739 E271.4802 F1534
G1 X84.005 Y77.739 E271.7799 F1534
G1 X84.005 Y78.15 E271.7953 F1534
G1 X75.995 Y78.15 E272.0950 F1534
G1 X75.995 Y78.561 E272.1104 F1534
G1 X84.005 Y78.561 E272.4101 F1534
G1 X84.005 Y78.972 E272.4255 F1534
G1 X75.995 Y78.972 E272.7252 F1534
G1 X75.995 Y79.383 E272.7406 F1534
G1 X84.005 Y79.383 E273.0403 F1534
G1 X84.005 Y79.794 E273.0557 F1534
G1 X75.995 Y79.794 E273.3554 F1534
G1 X75.995 Y80.206 E273.3708 F1534
G1 X84.005 Y80.206 E273.6705 F1534
G1 X84.005 Y80.617 E273.6859 F1534
G1 X75.995 Y80.617 E273.9856 F1534
G1 X75.995 Y81.028 E274.0010 F1534
G1 X84.005 Y81.028 E274.3007 F1534
G1 X84.005 Y81.439 E274.3161 F1534
G1 X75.995 Y81.439 E274.6158 F1534
G1 X75.995 Y81.85 E274.6311 F1534
G1 X84.005 Y81.85 E274.9309 F1534
G1 X84.005 Y82.261 E274.9462 F1534
G1 X75.995 Y82.261 E275.2460 F1534
G1 X75.995 Y82.672 E275.2613 F1534
G1 X84.005 Y82.672 E275.5611 F1534
G1 X84.005 Y83.083 E275.5764 F1534
G1 X75.995 Y83.083 E275.8762 F1534
G1 X75.995 Y83.494 E275.8915 F1534
G1 X84.005 Y83.494 E276.1912 F1534
G1 X84.005 Y83.905 E276.2066 F1534
G1 X75.995 Y83.905 E276.5063 F1534
; Layer 50/50 Z10 solid
G0 Z10 F300
G0 X75.645 Y75.645 F3000
G1 X84.355 Y75.645 E276.8323 F1278
G1 X84.355 Y84.355 E277.1582 F1278
G1 X75.645 Y84.355 E277.4841 F1278
G1 X75.645 Y75.645 E277.8100 F1278
G0 X75.225 Y75.225 F3000
G1 X84.775 Y75.225 E278.1673 F1278
G1 X84.775 Y84.775 E278.5247 F1278
G1 X75.225 Y84.775 E278.8820 F1278
G1 X75.225 Y75.225 E279.2393 F1278
G0 X76.095 Y75.995 F3000
G1 X76.095 Y84.005 E279.5390 F1534
G1 X76.506 Y84.005 E279.5544 F1534
G1 X76.506 Y75.995 E279.8541 F1534
G1 X76.917 Y75.995 E279.8695 F1534
G1 X76.917 Y84.005 E280.1692 F1534
G1 X77.328 Y84.005 E280.1846 F1534
G1 X77.328 Y75.995 E280.4843 F1534
G1 X77.739 Y75.995 E280.4997 F1534
G1 X77.739 Y84.005 E280.7994 F1534
G1 X78.15 Y84.005 E280.8148 F1534
G1 X78.15 Y75.995 E281.1145 F1534
G1 X78.561 Y75.995 E281.1299 F1534
G1 X78.561 Y84.005 E281.4296 F1534
G1 X78.972 Y84.005 E281.4450 F1534
G1 X78.972 Y75.995 E281.7447 F1534
G1 X79.383 Y75.995 E281.7601 F1534
G1 X79.383 Y84.005 E282.0598 F1534
G1 X79.794 Y84.005 E282.0752 F1534
G1 X79.794 Y75.995 E282.3749 F1534
G1 X80.206 Y75.995 E282.3903 F1534
G1 X80.206 Y84.005 E282.6900 F1534
G1 X80.617 Y84.005 E282.7054 F1534
G1 X80.617 Y75.995 E283.0051 F1534
G1 X81.028 Y75.995 E283.0205 F1534
G1 X81.028 Y84.005 E283.3202 F1534
G1 X81.439 Y84.005 E283.3356 F1534
G1 X81.439 Y75.995 E283.6353 F1534
G1 X81.85 Y75.995 E283.6507 F1534
G1 X81.85 Y84.005 E283.9504 F1534
G1 X82.261 Y84.005 E283.9658 F1534
G1 X82.261 Y75.995 E284.2655 F1534
G1 X82.672 Y75.995 E284.2809 F1534
G1 X82.672 Y84.005 E284.5806 F1534
G1 X83.083 Y84.005 E284.5960 F1534
G1 X83.083 Y75.995 E284.8957 F1534
G1 X83.494 Y75.995 E284.9111 F1534
G1 X83.494 Y84.005 E285.2108 F1534
G1 X83.905 Y84.005 E285.2262 F1534
G1 X83.905 Y75.995 E285.5259 F1534
; End: retract, lift, present the part, heaters and fan off
G1 E283.5259 F1800
G0 Z20 F300
G0 X80 Y150 F3000
M106 S0
M104 S0
M140 S0
